IRIDIUM 106             
1 41917U 17003A   24165.33998018  .00000384  00000+0  12989-3 0  9998
2 41917  86.3980  35.1967 0002334  97.7015 262.4446 14.34218542388023
IRIDIUM 103             
1 41918U 17003B   24164.69937760  .00000049  00000+0  10608-4 0  9999
2 41918  86.3979  35.3663 0001781  85.8151 274.3248 14.34217404387950
IRIDIUM 109             
1 41919U 17003C   24165.19409852  .00000391  00000+0  13243-3 0  9999
2 41919  86.3982  35.2069 0002111  77.6820 282.4612 14.34219134388019
IRIDIUM 102             
1 41920U 17003D   24165.37169337  .00000029  00000+0  33656-5 0  9992
2 41920  86.3980  35.0718 0002349  82.7138 277.4324 14.34217608388108
IRIDIUM 105             
1 41921U 17003E   24165.48203252  .00000431  00000+0  14696-3 0  9998
2 41921  86.3980   3.4639 0002001  88.7112 271.4312 14.34218516389979
IRIDIUM 104             
1 41922U 17003F   24165.38437800  .00000058  00000+0  13583-4 0  9996
2 41922  86.3980  35.0980 0002059  75.3692 284.7732 14.34217530388098
IRIDIUM 114             
1 41923U 17003G   24165.39071929  .00000068  00000+0  17316-4 0  9993
2 41923  86.3979  35.0811 0002273  92.8409 267.3047 14.34215945388092
IRIDIUM 108             
1 41924U 17003H   24165.48877656  .00000167  00000+0  52718-4 0  9990
2 41924  86.3975   3.3859 0002301  94.1811 265.9648 14.34215411389969
